[{"OBJECT_NAME":"STARLINK-1215","OBJECT_ID":"2020-012AZ","EPOCH":"2026-03-09T23:34:27.559488","MEAN_MOTION":15.30203883,"ECCENTRICITY":0.00013943,"INCLINATION":53.1616,"RA_OF_ASC_NODE":356.9455,"ARG_OF_PERICENTER":74.9207,"MEAN_ANOMALY":285.1948,"EPHEMERIS_TYPE":0,"CLASSIFICATION_TYPE":"U","NORAD_CAT_ID":45225,"ELEMENT_SET_NO":999,"REV_AT_EPOCH":33552,"BSTAR":0.00012456515,"MEAN_MOTION_DOT":3.332e-5,"MEAN_MOTION_DDOT":0},{"OBJECT_NAME":"GENMAT-1","OBJECT_ID":"2023-174W","EPOCH":"2026-03-09T18:03:23.351040","MEAN_MOTION":15.32594666,"ECCENTRICITY":0.00074416,"INCLINATION":97.3728,"RA_OF_ASC_NODE":146.8236,"ARG_OF_PERICENTER":169.2515,"MEAN_ANOMALY":190.8888,"EPHEMERIS_TYPE":0,"CLASSIFICATION_TYPE":"U","NORAD_CAT_ID":58276,"ELEMENT_SET_NO":999,"REV_AT_EPOCH":12973,"BSTAR":0.00042157222,"MEAN_MOTION_DOT":0.0001321,"MEAN_MOTION_DDOT":0}]
